0 FENGYUN 1C DEB
1 30375U 99025ACN 13281.52905240  .00004266  00000-0  19984-2 0  1819
2 30375 098.5804 214.1761 0021133 008.1294 047.2759 14.20572571347068
0 FENGYUN 1C DEB
1 30375U 99025ACN 13282.51668950  .00007091  00000-0  33062-2 0  1826
2 30375 098.5799 215.1350 0021074 006.0686 057.3372 14.20592572347204
0 FENGYUN 1C DEB
1 30375U 99025ACN 13284.07773439  .00007284  00000-0  33949-2 0  1837
2 30375 098.5796 216.6507 0021017 002.7657 119.5522 14.20605747347420
0 FENGYUN 1C DEB
1 30375U 99025ACN 13286.12124258  .00005985  00000-0  27924-2 0  1847
2 30375 098.5797 218.6347 0020915 358.7843 128.5800 14.20630612347712
0 FENGYUN 1C DEB
1 30375U 99025ACN 13288.78461537  .00008240  00000-0  38331-2 0  1857
2 30375 098.5803 221.2207 0020704 353.2528 067.7694 14.20666212348093
0 FENGYUN 1C DEB
1 30375U 99025ACN 13291.53029611  .00007758  00000-0  36078-2 0  1867
2 30375 098.5808 223.8861 0020422 347.9636 067.8181 14.20705338348487
0 FENGYUN 1C DEB
1 30375U 99025ACN 13293.78342418  .00008303  00000-0  38578-2 0  1874
2 30375 098.5805 226.0738 0020143 343.2301 069.8762 14.20734084348803
